IRIDIUM 106             
1 41917U 17003A   24016.73302666  .00000562  00000+0  19359-3 0  9991
2 41917  86.3961  97.3414 0001686  97.4002 262.7386 14.34215158366720
IRIDIUM 103             
1 41918U 17003B   24016.72034895  .00000072  00000+0  18517-4 0  9999
2 41918  86.3962  97.2478 0002175  84.7320 275.4123 14.34218005366743
IRIDIUM 109             
1 41919U 17003C   24016.72669147  .00000180  00000+0  57305-4 0  9992
2 41919  86.3965  97.2906 0002368  96.5267 263.6198 14.34218314366719
IRIDIUM 102             
1 41920U 17003D   24016.76474522  .00000539  00000+0  18545-3 0  9999
2 41920  86.3961  97.2176 0002270  97.2947 262.8507 14.34218399366809
IRIDIUM 105             
1 41921U 17003E   24016.66575296  .00000504  00000+0  17300-3 0  9999
2 41921  86.3944  65.6598 0002195  91.6967 268.4480 14.34215774368644
IRIDIUM 104             
1 41922U 17003F   24016.77743291  .00000210  00000+0  67832-4 0  9994
2 41922  86.3961  97.2416 0002283  92.6032 267.5425 14.34218565366790
IRIDIUM 114             
1 41923U 17003G   24016.71400610  .00000132  00000+0  40104-4 0  9990
2 41923  86.3962  97.2550 0001835  97.8351 262.3053 14.34216740366764
IRIDIUM 108             
1 41924U 17003H   24016.67252616  .00000117  00000+0  34740-4 0  9999
2 41924  86.3938  65.5916 0001805  93.1051 267.0351 14.34218400368619
